start=new Date('2021-09-13T00:00:00.000Z').valueOf();
sats=[{"APOAPSIS":"548.853","CENTER_NAME":"EARTH","NORAD_CAT_ID":"45205","SEMIMAJOR_AXIS":"6925.361","ECCENTRICITY":"0.00023490","EPOCH":"2021-09-12T19:33:10.162080","RA_OF_ASC_NODE":"183.8148","OBJECT_TYPE":"PAYLOAD","GP_ID":"184597287","TIME_SYSTEM":"UTC","TLE_LINE2":"2 45205  53.0547 183.8148 0002349  51.9916 308.1285 15.06395803 88120","CLASSIFICATION_TYPE":"U","REF_FRAME":"TEME","ELEMENT_SET_NO":"999","COUNTRY_CODE":"US","MEAN_MOTION_DOT":"-0.00000335","BSTAR":"-0.00000354270000","MEAN_MOTION":"15.06395803","INCLINATION":"53.0547","DECAY_DATE":null,"EPHEMERIS_TYPE":"0","PERIAPSIS":"545.600","LAUNCH_DATE":"2020-02-17","ARG_OF_PERICENTER":"51.9916","MEAN_ANOMALY":"308.1285","OBJECT_ID":"2020-012AD","MEAN_MOTION_DDOT":"0.0000000000000","FILE":"3114195","TLE_LINE1":"1 45205U 20012AD  21255.81470095 -.00000335  00000-0 -35427-5 0  9999","MEAN_ELEMENT_THEORY":"SGP4","RCS_SIZE":"LARGE","REV_AT_EPOCH":"8812","OBJECT_NAME":"STARLINK-1208","SITE":"AFETR","PERIOD":"95.592"},{"BSTAR":"-0.00002343700000","MEAN_MOTION":"15.06394826","COUNTRY_CODE":"US","MEAN_MOTION_DOT":"-0.00000631","REF_FRAME":"TEME","ELEMENT_SET_NO":"999","TIME_SYSTEM":"UTC","TLE_LINE2":"2 45206  53.0550 163.3996 0001872  64.8105 295.3078 15.06394826 87447","CLASSIFICATION_TYPE":"U","GP_ID":"184597537","ECCENTRICITY":"0.00018720","EPOCH":"2021-09-12T21:48:30.999168","RA_OF_ASC_NODE":"163.3996","OBJECT_TYPE":"PAYLOAD","CENTER_NAME":"EARTH","SEMIMAJOR_AXIS":"6925.364","NORAD_CAT_ID":"45206","APOAPSIS":"548.526","PERIOD":"95.592","SITE":"AFETR","REV_AT_EPOCH":"8744","OBJECT_NAME":"STARLINK-1209","TLE_LINE1":"1 45206U 20012AE  21255.90869212 -.00000631  00000-0 -23437-4 0  9999","MEAN_ELEMENT_THEORY":"SGP4","RCS_SIZE":"LARGE","FILE":"3114195","OBJECT_ID":"2020-012AE","MEAN_MOTION_DDOT":"0.0000000000000","LAUNCH_DATE":"2020-02-17","ARG_OF_PERICENTER":"64.8105","MEAN_ANOMALY":"295.3078","DECAY_DATE":null,"PERIAPSIS":"545.933","EPHEMERIS_TYPE":"0","INCLINATION":"53.0550"},{"REF_FRAME":"TEME","ELEMENT_SET_NO":"999","TIME_SYSTEM":"UTC","TLE_LINE2":"2 45207  53.0539 183.4161 0001712  67.0703 293.0467 15.06405633 88115","CLASSIFICATION_TYPE":"U","BSTAR":"0.00000327680000","MEAN_MOTION":"15.06405633","COUNTRY_CODE":"US","MEAN_MOTION_DOT":"-0.00000233","CENTER_NAME":"EARTH","SEMIMAJOR_AXIS":"6925.331","NORAD_CAT_ID":"45207","APOAPSIS":"548.382","GP_ID":"184598789","ECCENTRICITY":"0.00017120","EPOCH":"2021-09-12T21:40:32.764800","RA_OF_ASC_NODE":"183.4161","OBJECT_TYPE":"PAYLOAD","TLE_LINE1":"1 45207U 20012AF  21255.90315700 -.00000233  00000-0  32768-5 0  9993","MEAN_ELEMENT_THEORY":"SGP4","RCS_SIZE":"LARGE","FILE":"3114195","SITE":"AFETR","PERIOD":"95.592","REV_AT_EPOCH":"8811","OBJECT_NAME":"STARLINK-1210","DECAY_DATE":null,"PERIAPSIS":"546.011","EPHEMERIS_TYPE":"0","INCLINATION":"53.0539","OBJECT_ID":"2020-012AF","MEAN_MOTION_DDOT":"0.0000000000000","LAUNCH_DATE":"2020-02-17","ARG_OF_PERICENTER":"67.0703","MEAN_ANOMALY":"293.0467"},{"GP_ID":"184598526","EPOCH":"2021-09-12T21:53:46.077504","RA_OF_ASC_NODE":"183.3817","OBJECT_TYPE":"PAYLOAD","ECCENTRICITY":"0.00018050","NORAD_CAT_ID":"45208","SEMIMAJOR_AXIS":"6927.859","CENTER_NAME":"EARTH","APOAPSIS":"550.975","MEAN_MOTION":"15.05581239","BSTAR":"0.00006495800000","COUNTRY_CODE":"US","MEAN_MOTION_DOT":"0.00000667","ELEMENT_SET_NO":"999","REF_FRAME":"TEME","TIME_SYSTEM":"UTC","TLE_LINE2":"2 45208  52.9990 183.3817 0001805  55.3415 304.7743 15.05581239 88039","CLASSIFICATION_TYPE":"U","MEAN_MOTION_DDOT":"0.0000000000000","OBJECT_ID":"2020-012AG","ARG_OF_PERICENTER":"55.3415","LAUNCH_DATE":"2020-02-17","MEAN_ANOMALY":"304.7743","EPHEMERIS_TYPE":"0","PERIAPSIS":"548.474","DECAY_DATE":null,"INCLINATION":"52.9990","SITE":"AFETR","PERIOD":"95.644","OBJECT_NAME":"STARLINK-1211","REV_AT_EPOCH":"8803","RCS_SIZE":"LARGE","TLE_LINE1":"1 45208U 20012AG  21255.91233886  .00000667  00000-0  64958-4 0  9994","MEAN_ELEMENT_THEORY":"SGP4","FILE":"3114195"},{"PERIOD":"91.736","SITE":"AFETR","REV_AT_EPOCH":"8857","OBJECT_NAME":"STARLINK-1218","MEAN_ELEMENT_THEORY":"SGP4","TLE_LINE1":"1 45209U 20012AH  21255.88538152 -.00001587  00000-0 -81414-5 0  9996","RCS_SIZE":"LARGE","FILE":"3114195","OBJECT_ID":"2020-012AH","MEAN_MOTION_DDOT":"0.0000000000000","ARG_OF_PERICENTER":"332.0243","LAUNCH_DATE":"2020-02-17","MEAN_ANOMALY":"28.0391","DECAY_DATE":null,"PERIAPSIS":"354.945","EPHEMERIS_TYPE":"0","INCLINATION":"53.0546","BSTAR":"-0.00000814140000","MEAN_MOTION":"15.69714222","MEAN_MOTION_DOT":"-0.00001587","COUNTRY_CODE":"US","REF_FRAME":"TEME","ELEMENT_SET_NO":"999","TLE_LINE2":"2 45209  53.0546 146.6635 0007082 332.0243  28.0391 15.69714222 88570","TIME_SYSTEM":"UTC","CLASSIFICATION_TYPE":"U","GP_ID":"184597788","ECCENTRICITY":"0.00070820","EPOCH":"2021-09-12T21:14:56.963328","RA_OF_ASC_NODE":"146.6635","OBJECT_TYPE":"PAYLOAD","CENTER_NAME":"EARTH","NORAD_CAT_ID":"45209","SEMIMAJOR_AXIS":"6737.852","APOAPSIS":"364.488"},{"TLE_LINE1":"1 45210U 20012AJ  21255.90684317  .00001549  00000-0  12286-3 0  9991","MEAN_ELEMENT_THEORY":"SGP4","RCS_SIZE":"LARGE","FILE":"3114195","SITE":"AFETR","PERIOD":"95.592","REV_AT_EPOCH":"8800","OBJECT_NAME":"STARLINK-1219","DECAY_DATE":null,"EPHEMERIS_TYPE":"0","PERIAPSIS":"545.979","INCLINATION":"53.0544","OBJECT_ID":"2020-012AJ","MEAN_MOTION_DDOT":"0.0000000000000","MEAN_ANOMALY":"300.0956","LAUNCH_DATE":"2020-02-17","ARG_OF_PERICENTER":"60.0212","REF_FRAME":"TEME","ELEMENT_SET_NO":"999","CLASSIFICATION_TYPE":"U","TIME_SYSTEM":"UTC","TLE_LINE2":"2 45210  53.0544 183.4117 0001802  60.0212 300.0956 15.06395529 88006","BSTAR":"0.00012286000000","MEAN_MOTION":"15.06395529","COUNTRY_CODE":"US","MEAN_MOTION_DOT":"0.00001549","CENTER_NAME":"EARTH","SEMIMAJOR_AXIS":"6925.362","NORAD_CAT_ID":"45210","APOAPSIS":"548.475","GP_ID":"184598038","ECCENTRICITY":"0.00018020","OBJECT_TYPE":"PAYLOAD","RA_OF_ASC_NODE":"183.4117","EPOCH":"2021-09-12T21:45:51.249888"},{"COUNTRY_CODE":"US","MEAN_MOTION_DOT":"0.00000620","MEAN_MOTION":"15.06402322","BSTAR":"0.00006051300000","CLASSIFICATION_TYPE":"U","TLE_LINE2":"2 45212  53.0549 186.2392 0001788  55.1250 304.9907 15.06402322 87085","TIME_SYSTEM":"UTC","ELEMENT_SET_NO":"999","REF_FRAME":"TEME","OBJECT_TYPE":"PAYLOAD","RA_OF_ASC_NODE":"186.2392","EPOCH":"2021-09-12T06:38:13.926048","ECCENTRICITY":"0.00017880","GP_ID":"184578479","APOAPSIS":"548.445","NORAD_CAT_ID":"45212","SEMIMAJOR_AXIS":"6925.341","CENTER_NAME":"EARTH","OBJECT_NAME":"STARLINK-1231","REV_AT_EPOCH":"8708","SITE":"AFETR","PERIOD":"95.592","FILE":"3114187","RCS_SIZE":"LARGE","TLE_LINE1":"1 45212U 20012AL  21255.27655007  .00000620  00000-0  60513-4 0  9993","MEAN_ELEMENT_THEORY":"SGP4","MEAN_ANOMALY":"304.9907","LAUNCH_DATE":"2020-02-17","ARG_OF_PERICENTER":"55.1250","MEAN_MOTION_DDOT":"0.0000000000000","OBJECT_ID":"2020-012AL","INCLINATION":"53.0549","PERIAPSIS":"545.968","EPHEMERIS_TYPE":"0","DECAY_DATE":null},{"EPHEMERIS_TYPE":"0","PERIAPSIS":"545.592","DECAY_DATE":null,"INCLINATION":"53.0552","MEAN_MOTION_DDOT":"0.0000000000000","OBJECT_ID":"2020-012AM","ARG_OF_PERICENTER":"67.0799","LAUNCH_DATE":"2020-02-17","MEAN_ANOMALY":"293.0374","RCS_SIZE":"LARGE","TLE_LINE1":"1 45213U 20012AM  21255.81016460  .00001367  00000-0  11030-3 0  9996","MEAN_ELEMENT_THEORY":"SGP4","FILE":"3114195","PERIOD":"95.584","SITE":"AFETR","OBJECT_NAME":"STARLINK-1232","REV_AT_EPOCH":"8810","SEMIMAJOR_AXIS":"6924.937","NORAD_CAT_ID":"45213","CENTER_NAME":"EARTH","APOAPSIS":"548.012","GP_ID":"184599027","EPOCH":"2021-09-12T19:26:38.221440","RA_OF_ASC_NODE":"183.8368","OBJECT_TYPE":"PAYLOAD","ECCENTRICITY":"0.00017480","ELEMENT_SET_NO":"999","REF_FRAME":"TEME","TLE_LINE2":"2 45213  53.0552 183.8368 0001748  67.0799 293.0374 15.06534289 88100","TIME_SYSTEM":"UTC","CLASSIFICATION_TYPE":"U","MEAN_MOTION":"15.06534289","BSTAR":"0.00011030000000","MEAN_MOTION_DOT":"0.00001367","COUNTRY_CODE":"US"},{"MEAN_ANOMALY":"296.6664","ARG_OF_PERICENTER":"63.4522","LAUNCH_DATE":"2020-02-17","OBJECT_ID":"2020-012AN","MEAN_MOTION_DDOT":"0.0000000000000","INCLINATION":"53.0530","DECAY_DATE":null,"PERIAPSIS":"545.882","EPHEMERIS_TYPE":"0","REV_AT_EPOCH":"8811","OBJECT_NAME":"STARLINK-1233","SITE":"AFETR","PERIOD":"95.592","FILE":"3114195","MEAN_ELEMENT_THEORY":"SGP4","TLE_LINE1":"1 45214U 20012AN  21255.91421983  .00001297  00000-0  10599-3 0  9999","RCS_SIZE":"LARGE","ECCENTRICITY":"0.00019250","RA_OF_ASC_NODE":"183.3736","OBJECT_TYPE":"PAYLOAD","EPOCH":"2021-09-12T21:56:28.593312","GP_ID":"184597288","APOAPSIS":"548.548","CENTER_NAME":"EARTH","NORAD_CAT_ID":"45214","SEMIMAJOR_AXIS":"6925.350","MEAN_MOTION_DOT":"0.00001297","COUNTRY_CODE":"US","BSTAR":"0.00010599000000","MEAN_MOTION":"15.06399555","CLASSIFICATION_TYPE":"U","TIME_SYSTEM":"UTC","TLE_LINE2":"2 45214  53.0530 183.3736 0001925  63.4522 296.6664 15.06399555 88119","REF_FRAME":"TEME","ELEMENT_SET_NO":"999"},{"REV_AT_EPOCH":"8805","OBJECT_NAME":"STARLINK-1245","PERIOD":"95.592","SITE":"AFETR","FILE":"3114195","MEAN_ELEMENT_THEORY":"SGP4","TLE_LINE1":"1 45215U 20012AP  21255.91053460  .00001248  00000-0  10266-3 0  9998","RCS_SIZE":"LARGE","LAUNCH_DATE":"2020-02-17","ARG_OF_PERICENTER":"55.2022","MEAN_ANOMALY":"304.9128","OBJECT_ID":"2020-012AP","MEAN_MOTION_DDOT":"0.0000000000000","INCLINATION":"53.0543","DECAY_DATE":null,"PERIAPSIS":"546.029","EPHEMERIS_TYPE":"0","MEAN_MOTION_DOT":"0.00001248","COUNTRY_CODE":"US","BSTAR":"0.00010266000000","MEAN_MOTION":"15.06397287","TIME_SYSTEM":"UTC","TLE_LINE2":"2 45215  53.0543 183.3832 0001722  55.2022 304.9128 15.06397287 88051","CLASSIFICATION_TYPE":"U","REF_FRAME":"TEME","ELEMENT_SET_NO":"999","ECCENTRICITY":"0.00017220","EPOCH":"2021-09-12T21:51:10.189440","RA_OF_ASC_NODE":"183.3832","OBJECT_TYPE":"PAYLOAD","GP_ID":"184597538","APOAPSIS":"548.414","CENTER_NAME":"EARTH","SEMIMAJOR_AXIS":"6925.357","NORAD_CAT_ID":"45215"}];
